
# Worst residual: 7.71 km
# MJD 58382.000000 (2018 Sep 21  0:00)
TESS = 2018-038A = NORAD 43435
1 43435U 18038A   18264.49919926  .00000000  00000-0  00000-0 2  6000
2 43435 030.3956 285.1116 5348161 000.5802 024.6694 00.07066345    06

# Worst residual: 5.54 km
# MJD 58383.000000 (2018 Sep 22  0:00)
TESS = 2018-038A = NORAD 43435
1 43435U 18038A   18265.49919926  .00000000  00000-0  00000-0 2  6001
2 43435 030.3988 285.0364 5341667 000.5165 050.3109 00.07089157    04

# Worst residual: 7.96 km
# MJD 58384.000000 (2018 Sep 23  0:00)
TESS = 2018-038A = NORAD 43435
1 43435U 18038A   18266.49919926  .00000000  00000-0  00000-0 2  6002
2 43435 030.4067 285.0115 5335377 000.4261 076.0929 00.07106770    00

# Worst residual: 10.84 km
# MJD 58385.000000 (2018 Sep 24  0:00)
TESS = 2018-038A = NORAD 43435
1 43435U 18038A   18267.49919926  .00000000  00000-0  00000-0 2  6003
2 43435 030.3992 285.0220 5326511 000.3141 102.0097 00.07118961    00

# Worst residual: 15.15 km
# MJD 58386.000000 (2018 Sep 25  0:00)
TESS = 2018-038A = NORAD 43435
1 43435U 18038A   18268.49919926  .00000000  00000-0  00000-0 2  6004
2 43435 030.3731 285.0462 5316517 000.1822 128.0190 00.07125565    08

# Worst residual: 15.70 km
# MJD 58387.000000 (2018 Sep 26  0:00)
TESS = 2018-038A = NORAD 43435
1 43435U 18038A   18269.49919926  .00000000  00000-0  00000-0 2  6005
2 43435 030.3286 285.0695 5296016 000.0226 154.1830 00.07121784    09

# Worst residual: 17.82 km
# MJD 58388.000000 (2018 Sep 27  0:00)
TESS = 2018-038A = NORAD 43435
1 43435U 18038A   18270.49919926  .00000000  00000-0  00000-0 2  6007
2 43435 030.2710 285.0800 5275493 359.8194 180.3891 00.07111350    09

# Worst residual: 18.77 km
# MJD 58389.000000 (2018 Sep 28  0:00)
TESS = 2018-038A = NORAD 43435
1 43435U 18038A   18271.49919926  .00000000  00000-0  00000-0 2  6008
2 43435 030.2100 285.0711 5255024 359.5695 206.6048 00.07093153    00

# Worst residual: 18.08 km
# MJD 58390.000000 (2018 Sep 29  0:00)
TESS = 2018-038A = NORAD 43435
1 43435U 18038A   18272.49919926  .00000000  00000-0  00000-0 2  6009
2 43435 030.1507 285.0420 5237528 359.2822 232.7580 00.07068060    05

# Worst residual: 15.63 km
# MJD 58391.000000 (2018 Sep 30  0:00)
TESS = 2018-038A = NORAD 43435
1 43435U 18038A   18273.49919926  .00000000  00000-0  00000-0 2  6000
2 43435 030.0958 284.9920 5225871 358.9899 258.7591 00.07038346    09

# Worst residual: 11.53 km
# MJD 58392.000000 (2018 Oct  1  0:00)
TESS = 2018-038A = NORAD 43435
1 43435U 18038A   18274.49919926  .00000000  00000-0  00000-0 2  6001
2 43435 030.0517 284.9251 5220873 358.7347 284.5255 00.07007331    04

# Worst residual: 7.31 km
# MJD 58393.000000 (2018 Oct  2  0:00)
TESS = 2018-038A = NORAD 43435
1 43435U 18038A   18275.49919926  .00000000  00000-0  00000-0 2  6002
2 43435 030.0249 284.8519 5221310 358.5543 310.0104 00.06979814    06

# Worst residual: 3.64 km
# MJD 58394.000000 (2018 Oct  3  0:00)
TESS = 2018-038A = NORAD 43435
1 43435U 18038A   18276.49919926  .00000000  00000-0  00000-0 2  6003
2 43435 030.0205 284.8128 5224585 358.4405 335.2428 00.06960297    00

# Worst residual: 4.05 km
# MJD 58395.000000 (2018 Oct  4  0:00)
TESS = 2018-038A = NORAD 43435
1 43435U 18038A   18277.49919926  .00000000  00000-0  00000-0 2  6004
2 43435 030.0138 284.8207 5230336 358.3729 000.3168 00.06945383    02

# Worst residual: 9.11 km
# MJD 58396.000000 (2018 Oct  5  0:00)
TESS = 2018-038A = NORAD 43435
1 43435U 18038A   18278.49919926  .00000000  00000-0  00000-0 2  6005
2 43435 029.9887 284.7755 5234401 358.3554 025.3112 00.06939907    01

# Worst residual: 13.35 km
# MJD 58397.000000 (2018 Oct  6  0:00)
TESS = 2018-038A = NORAD 43435
1 43435U 18038A   18279.49919926  .00000000  00000-0  00000-0 2  6006
2 43435 029.9940 284.6336 5238445 358.2711 050.4267 00.06955370    03

# Worst residual: 16.40 km
# MJD 58398.000000 (2018 Oct  7  0:00)
TESS = 2018-038A = NORAD 43435
1 43435U 18038A   18280.49919926  .00000000  00000-0  00000-0 2  6008
2 43435 030.0494 284.4521 5250808 358.0856 075.7722 00.06985300    01

# Worst residual: 17.70 km
# MJD 58399.000000 (2018 Oct  8  0:00)
TESS = 2018-038A = NORAD 43435
1 43435U 18038A   18281.49919926  .00000000  00000-0  00000-0 2  6009
2 43435 030.1444 284.2849 5274431 357.8697 101.2860 00.07018826    05

# Worst residual: 21.15 km
# MJD 58400.000000 (2018 Oct  9  0:00)
TESS = 2018-038A = NORAD 43435
1 43435U 18038A   18282.49919926  .00000000  00000-0  00000-0 2  6000
2 43435 030.2575 284.1624 5309274 357.6766 126.8698 00.07052371    05

# Worst residual: 15.40 km
# MJD 58401.000000 (2018 Oct 10  0:00)
TESS = 2018-038A = NORAD 43435
1 43435U 18038A   18283.49919926  .00000000  00000-0  00000-0 2  6001
2 43435 030.3626 284.0948 5340217 357.5500 152.5340 00.07078618    00

# Worst residual: 12.22 km
# MJD 58402.000000 (2018 Oct 11  0:00)
TESS = 2018-038A = NORAD 43435
1 43435U 18038A   18284.49919926  .00000000  00000-0  00000-0 2  6002
2 43435 030.4393 284.0720 5372083 357.4850 178.1921 00.07101794    04

# Worst residual: 8.65 km
# MJD 58403.000000 (2018 Oct 12  0:00)
TESS = 2018-038A = NORAD 43435
1 43435U 18038A   18285.49919926  .00000000  00000-0  00000-0 2  6003
2 43435 030.4782 284.0721 5398458 357.4801 203.8593 00.07119846    05

# Worst residual: 4.68 km
# MJD 58404.000000 (2018 Oct 13  0:00)
TESS = 2018-038A = NORAD 43435
1 43435U 18038A   18286.49919926  .00000000  00000-0  00000-0 2  6004
2 43435 030.4754 284.0702 5416993 357.5280 229.5221 00.07132711    09

# Worst residual: 4.88 km
# MJD 58405.000000 (2018 Oct 14  0:00)
TESS = 2018-038A = NORAD 43435
1 43435U 18038A   18287.49919926  .00000000  00000-0  00000-0 2  6005
2 43435 030.4400 284.0432 5427541 357.6149 255.1836 00.07141260    09

# Worst residual: 5.28 km
# MJD 58406.000000 (2018 Oct 15  0:00)
TESS = 2018-038A = NORAD 43435
1 43435U 18038A   18288.49919926  .00000000  00000-0  00000-0 2  6006
2 43435 030.3890 283.9784 5431527 357.7261 280.8512 00.07146875    07

# Worst residual: 4.86 km
# MJD 58407.000000 (2018 Oct 16  0:00)
TESS = 2018-038A = NORAD 43435
1 43435U 18038A   18289.49919926  .00000000  00000-0  00000-0 2  6007
2 43435 030.3448 283.8802 5430898 357.8649 306.5095 00.07153880    03

# Worst residual: 3.52 km
# MJD 58408.000000 (2018 Oct 17  0:00)
TESS = 2018-038A = NORAD 43435
1 43435U 18038A   18290.49919926  .00000000  00000-0  00000-0 2  6009
2 43435 030.3294 283.7889 5428247 358.0014 332.2051 00.07163936    01

# Worst residual: 5.24 km
# MJD 58409.000000 (2018 Oct 18  0:00)
TESS = 2018-038A = NORAD 43435
1 43435U 18038A   18291.49919926  .00000000  00000-0  00000-0 2  6000
2 43435 030.3285 283.7741 5429175 358.0412 357.9898 00.07163720    05

# Worst residual: 8.18 km
# MJD 58410.000000 (2018 Oct 19  0:00)
TESS = 2018-038A = NORAD 43435
1 43435U 18038A   18292.49919926  .00000000  00000-0  00000-0 2  6001
2 43435 030.2960 283.7234 5431799 358.0529 023.7714 00.07159313    03

# Worst residual: 4.77 km
# MJD 58411.000000 (2018 Oct 20  0:00)
TESS = 2018-038A = NORAD 43435
1 43435U 18038A   18293.49919926  .00000000  00000-0  00000-0 2  6002
2 43435 030.2993 283.6182 5429684 358.0503 049.6572 00.07172642    01

# Worst residual: 5.62 km
# MJD 58412.000000 (2018 Oct 21  0:00)
TESS = 2018-038A = NORAD 43435
1 43435U 18038A   18294.49919926  .00000000  00000-0  00000-0 2  6003
2 43435 030.3216 283.5481 5430148 357.9828 075.6627 00.07187865    09
